OBJECT_NAME,OBJECT_ID,EPOCH,MEAN_MOTION,ECCENTRICITY,INCLINATION,RA_OF_ASC_NODE,ARG_OF_PERICENTER,MEAN_ANOMALY,EPHEMERIS_TYPE,CLASSIFICATION_TYPE,NORAD_CAT_ID,ELEMENT_SET_NO,REV_AT_EPOCH,BSTAR,MEAN_MOTION_DOT,MEAN_MOTION_DDOT
ONEWEB-0395,2021-132G,2026-06-13T02:57:34.889472,13.11419256,.0001993,87.8888,21.8764,89.3936,270.7420,0,U,50475,999,21518,.12863724E-2,.469E-5,0
ONEWEB-0396,2021-132H,2026-06-13T05:19:11.204544,13.18684146,.00019521,87.9169,336.2436,87.8903,272.2453,0,U,50476,999,22111,-.82528453E-4,-.2E-6,0
ONEWEB-0397,2021-132J,2026-06-13T00:13:15.414816,13.18684730,.00018953,87.9167,336.2859,84.2621,275.8728,0,U,50477,999,22106,-.93779773E-4,-.24E-6,0
ONEWEB-0398,2021-132K,2026-06-13T00:21:17.770464,13.11415641,.00019022,87.8891,21.8884,94.7478,265.3867,0,U,50478,999,21506,-.13425032E-2,-.463E-5,0
ONEWEB-0399,2021-132L,2026-06-13T01:51:38.966976,13.11414319,.00022015,87.8897,21.8866,76.2272,283.9101,0,U,50479,999,21506,-.10046354E-3,-.23E-6,0
ONEWEB-0400,2021-132M,2026-06-13T05:09:29.017152,13.18684986,.00019134,87.9167,336.2349,97.5132,262.6217,0,U,50480,999,22108,.89805303E-4,.48E-6,0
ONEWEB-0401,2021-132N,2026-06-13T04:25:46.320096,13.18685811,.00016667,87.9168,336.2378,86.6642,273.4681,0,U,50481,999,22108,.21545174E-3,.98E-6,0
ONEWEB-0402,2021-132P,2026-06-13T05:21:37.966176,13.18685772,.00015896,87.9168,336.2197,78.9797,281.1514,0,U,50482,999,22111,.98423102E-4,.52E-6,0
ONEWEB-0403,2021-132Q,2026-06-13T04:08:46.533984,13.18684929,.00019735,87.9168,336.2538,90.3347,269.8012,0,U,50483,999,22106,-.53248393E-4,-.8E-7,0
ONEWEB-0404,2021-132R,2026-06-13T03:14:40.637184,13.11416501,.00021531,87.8892,21.8737,84.2289,275.9084,0,U,50484,999,21516,.15600826E-2,.566E-5,0
ONEWEB-0405,2021-132S,2026-06-13T04:28:12.815616,13.18686983,.00019468,87.9172,336.2355,105.4656,254.6691,0,U,50485,999,22146,.11556787E-4,.17E-6,0
ONEWEB-0406,2021-132T,2026-06-13T04:16:03.794016,13.18685370,.00023636,87.9164,336.2539,87.4495,272.6908,0,U,50486,999,22109,-.52118507E-4,-.8E-7,0
ONEWEB-0407,2021-132U,2026-06-13T04:06:21.567744,13.18685182,.00016189,87.9169,336.2473,93.9668,266.1650,0,U,50487,999,22103,.76762732E-4,.43E-6,0
ONEWEB-0409,2021-132V,2026-06-13T03:12:13.494528,13.11418112,.00020943,87.8896,21.8621,86.8180,273.3187,0,U,50488,999,21505,.16662286E-2,.603E-5,0
ONEWEB-0412,2021-132W,2026-06-13T00:10:49.421280,13.18684909,.00016615,87.9166,336.2885,83.3470,276.7851,0,U,50489,999,22110,-.55607638E-4,-.9E-7,0
ONEWEB-0413,2021-132X,2026-06-13T05:45:55.557504,13.18672215,.00019846,87.9158,336.2428,85.7742,274.3617,0,U,50490,999,22107,-.38228118E-2,-.1494E-4,0
ONEWEB-0414,2021-132Y,2026-06-13T05:24:03.091392,13.18684785,.0001838,87.9167,336.2256,86.3115,273.8227,0,U,50491,999,22110,.51389942E-4,.33E-6,0
ONEWEB-0417,2021-132Z,2026-06-13T05:36:11.331072,13.18685413,.00020718,87.9159,336.2439,91.5165,268.6204,0,U,50492,999,22108,.91350666E-4,.49E-6,0
ONEWEB-0418,2021-132AA,2026-06-13T00:22:45.764544,13.18695986,.00020825,87.9168,336.2866,91.3189,268.8182,0,U,50493,999,22111,.25921375E-2,.1035E-4,0
ONEWEB-0419,2021-132AB,2026-06-13T04:27:59.533344,13.18666153,.00020963,87.9167,336.2519,97.2336,262.9034,0,U,50494,999,22105,.54155559E-4,.34E-6,0
ONEWEB-0420,2021-132AC,2026-06-13T05:26:28.503456,13.18684859,.00016494,87.9161,336.2475,94.5281,265.6040,0,U,50495,999,22105,-.12958894E-3,-.38E-6,0
ONEWEB-0421,2021-132AD,2026-06-13T05:16:45.559200,13.18684798,.00018427,87.9164,336.2462,80.4988,279.6352,0,U,50496,999,22109,.22948308E-3,.103E-5,0
ONEWEB-0424,2021-132AE,2026-06-13T04:20:55.184064,13.18685697,.00020339,87.9167,336.2516,101.0683,259.0678,0,U,50497,999,22111,.93987792E-4,.5E-6,0
ONEWEB-0426,2021-132AF,2026-06-13T05:10:41.288160,13.18688312,.00023581,87.9168,336.2361,78.3251,281.8146,0,U,50498,999,22106,-.2371855E-5,.12E-6,0
ONEWEB-0427,2021-132AG,2026-06-13T04:18:29.546496,13.18685451,.00020451,87.9169,336.2317,90.2136,269.9231,0,U,50499,999,22108,-.29077797E-4,.1E-7,0
ONEWEB-0429,2021-132AH,2026-06-13T05:48:19.863648,13.18685189,.00017179,87.9162,336.2442,93.0645,267.0683,0,U,50500,999,22106,-.96270995E-4,-.25E-6,0
ONEWEB-0430,2021-132AJ,2026-06-13T05:31:19.839072,13.18685643,.0001753,87.9162,336.2449,100.4568,259.6761,0,U,50501,999,22110,.28077742E-4,.24E-6,0
ONEWEB-0432,2021-132AK,2026-06-13T04:37:44.477760,13.17154824,.00020889,87.9168,336.2278,109.3105,250.8252,0,U,50502,999,22105,-.12187397E-3,-.34E-6,0
ONEWEB-0440,2021-132AL,2026-06-13T04:11:12.190560,13.18685809,.00015973,87.9169,336.2516,83.7448,276.3866,0,U,50503,999,22104,.84018136E-4,.46E-6,0
ONEWEB-0450,2021-132AM,2026-06-13T04:01:42.057696,13.18685715,.00016603,87.9158,336.2587,95.1381,264.9940,0,U,50504,999,22107,-.92753205E-4,-.24E-6,0
